[
    {
        "CCSDS_OMM_VERS": "3.0",
        "COMMENT": "GENERATED VIA SPACE-TRACK.ORG API",
        "CREATION_DATE": "2025-04-14T03:05:54",
        "ORIGINATOR": "18 SPCS",
        "OBJECT_NAME": "COSMOS 2501 (GLONASS)",
        "OBJECT_ID": "2014-075A",
        "CENTER_NAME": "EARTH",
        "REF_FRAME": "TEME",
        "TIME_SYSTEM": "UTC",
        "MEAN_ELEMENT_THEORY": "SGP4",
        "EPOCH": "2025-04-12T23:45:25.245792",
        "MEAN_MOTION": "2.13101475",
        "ECCENTRICITY": "0.00205610",
        "INCLINATION": "63.6152",
        "RA_OF_ASC_NODE": "205.2688",
        "ARG_OF_PERICENTER": "207.7065",
        "MEAN_ANOMALY": "152.2011",
        "EPHEMERIS_TYPE": "0",
        "CLASSIFICATION_TYPE": "U",
        "NORAD_CAT_ID": "40315",
        "ELEMENT_SET_NO": "999",
        "REV_AT_EPOCH": "8068",
        "BSTAR": "0.00000000000000",
        "MEAN_MOTION_DOT": "0.00000008",
        "MEAN_MOTION_DDOT": "0.0000000000000",
        "SEMIMAJOR_AXIS": "25508.066",
        "PERIOD": "675.734",
        "APOAPSIS": "19182.378",
        "PERIAPSIS": "19077.484",
        "OBJECT_TYPE": "PAYLOAD",
        "RCS_SIZE": "LARGE",
        "COUNTRY_CODE": "CIS",
        "LAUNCH_DATE": "2014-11-30",
        "SITE": "PKMTR",
        "DECAY_DATE": null,
        "FILE": "4701263",
        "GP_ID": "285536973",
        "TLE_LINE0": "0 COSMOS 2501 (GLONASS)",
        "TLE_LINE1": "1 40315U 14075A   25102.98987553  .00000008  00000-0  00000-0 0  9992",
        "TLE_LINE2": "2 40315  63.6152 205.2688 0020561 207.7065 152.2011  2.13101475 80688"
    }
]